NORAD_CAT_ID,OBJECT_NAME,OBJECT_TYPE,EPOCH,MEAN_MOTION,ECCENTRICITY,INCLINATION,RA_OF_ASC_NODE,ARG_OF_PERICENTER,MEAN_ANOMALY,BSTAR,MEAN_MOTION_DOT,MEAN_MOTION_DDOT,TLE_LINE0,TLE_LINE1,TLE_LINE2,SEMIMAJOR_AXIS,PERIOD,APOGEE,PERIGEE,DECAYED
52874.0,STARLINK-4210,PAYLOAD,2023-03-18 02:30:45,15.08826906,0.0001341,53.2161,216.4741,98.1275,261.9869,0.00021134,3.076e-05,0.0,0 STARLINK-4210,1 52874U 22062AW  23077.10469317  .00003076  00000-0  21134-3 0  9998,2 52874  53.2161 216.4741 0001341  98.1275 261.9869 15.08826906 42363,6917.92,95.438,540.713,538.858,0.0
52874.0,STARLINK-4210,PAYLOAD,2023-03-18 13:38:27,15.08836622,0.0001461,53.2162,214.3926,95.7227,264.3931,0.00025621,3.792e-05,0.0,0 STARLINK-4210,1 52874U 22062AW  23077.56836875  .00003792  00000-0  25621-3 0  9995,2 52874  53.2162 214.3926 0001461  95.7227 264.3931 15.08836622 42430,6917.891,95.438,540.766,538.745,0.0
52874.0,STARLINK-4210,PAYLOAD,2023-03-18 18:24:35,15.08849815,0.0001288,53.216,213.4997,102.3939,257.7197,0.00020566,2.988e-05,0.0,0 STARLINK-4210,1 52874U 22062AW  23077.76708067  .00002988  00000-0  20566-3 0  9997,2 52874  53.2160 213.4997 0001288 102.3939 257.7197 15.08849815 42469,6917.85,95.437,540.606,538.824,0.0
52874.0,STARLINK-4210,PAYLOAD,2023-03-19 02:21:33,15.0883195,0.0001688,53.2169,212.0145,85.7552,274.3633,1.2616e-05,-8.7e-07,0.0,0 STARLINK-4210,1 52874U 22062AW  23078.09830052 -.00000087  00000-0  12616-4 0  9991,2 52874  53.2169 212.0145 0001688  85.7552 274.3633 15.08831950 42514,6917.905,95.438,540.938,538.602,0.0
52874.0,STARLINK-4210,PAYLOAD,2023-03-19 13:29:15,15.08832993,0.0001504,53.2167,209.9334,85.159,274.9573,2.2168e-06,-2.53e-06,0.0,0 STARLINK-4210,1 52874U 22062AW  23078.56198118 -.00000253  00000-0  22168-5 0  9992,2 52874  53.2167 209.9334 0001504  85.1590 274.9573 15.08832993 42090,6917.902,95.438,540.807,538.726,0.0
52874.0,STARLINK-4210,PAYLOAD,2023-03-19 15:04:38,15.08840416,0.0001399,53.2169,209.6349,93.1461,266.9691,-5.2181e-05,-1.118e-05,0.0,0 STARLINK-4210,1 52874U 22062AW  23078.62821794 -.00001118  00000-0 -52181-4 0  9991,2 52874  53.2169 209.6349 0001399  93.1461 266.9691 15.08840416 42106,6917.879,95.438,540.712,538.776,0.0
52874.0,STARLINK-4210,PAYLOAD,2023-03-20 06:58:29,15.08842272,0.0001374,53.217,206.6621,89.8052,270.3098,-2.0928e-06,-3.21e-06,0.0,0 STARLINK-4210,1 52874U 22062AW  23079.29061403 -.00000321  00000-0 -20928-5 0  9998,2 52874  53.2170 206.6621 0001374  89.8052 270.3098 15.08842272 42695,6917.873,95.437,540.689,538.788,0.0
52874.0,STARLINK-4210,PAYLOAD,2023-03-20 13:20:01,15.08847257,0.0001524,53.2174,205.4742,85.5941,274.5226,-1.0149e-05,-4.5e-06,0.0,0 STARLINK-4210,1 52874U 22062AW  23079.55557115 -.00000450  00000-0 -10149-4 0  9993,2 52874  53.2174 205.4742 0001524  85.5941 274.5226 15.08847257 42245,6917.858,95.437,540.777,538.669,0.0
52874.0,STARLINK-4210,PAYLOAD,2023-03-20 14:55:24,15.08850722,0.0001365,53.2174,205.1767,84.2576,275.8572,-2.0529e-05,-6.15e-06,0.0,0 STARLINK-4210,1 52874U 22062AW  23079.62180850 -.00000615  00000-0 -20529-4 0  9995,2 52874  53.2174 205.1767 0001365  84.2576 275.8572 15.08850722 42746,6917.848,95.437,540.657,538.768,0.0
52874.0,STARLINK-4210,PAYLOAD,2023-03-21 08:24:39,15.08833588,0.0001534,53.2171,201.9061,78.1866,281.9298,7.9818e-05,9.82e-06,0.0,0 STARLINK-4210,1 52874U 22062AW  23080.35045461  .00000982  00000-0  79818-4 0  9995,2 52874  53.2171 201.9061 0001534  78.1866 281.9298 15.08833588 42852,6917.9,95.438,540.826,538.704,0.0
52874.0,STARLINK-4210,PAYLOAD,2023-03-21 13:10:48,15.08838765,0.0001467,53.2167,201.0136,92.5621,267.5539,8.0239e-05,9.89e-06,0.0,0 STARLINK-4210,1 52874U 22062AW  23080.54917057  .00000989  00000-0  80239-4 0  9991,2 52874  53.2167 201.0136 0001467  92.5621 267.5539 15.08838765 42394,6917.884,95.438,540.764,538.734,0.0
52874.0,STARLINK-4210,PAYLOAD,2023-03-22 13:01:36,15.08834828,0.0001335,53.2178,196.5563,86.9922,273.1223,-1.3877e-05,-5.09e-06,0.0,0 STARLINK-4210,1 52874U 22062AW  23081.54277825 -.00000509  00000-0 -13877-4 0  9998,2 52874  53.2178 196.5563 0001335  86.9922 273.1223 15.08834828 43034,6917.896,95.438,540.685,538.838,0.0
52874.0,STARLINK-4210,PAYLOAD,2023-03-22 14:36:58,15.08840608,0.0001326,53.2184,196.2572,102.8014,257.3126,5.0581e-07,-2.8e-06,0.0,0 STARLINK-4210,1 52874U 22062AW  23081.60901374 -.00000280  00000-0  50581-6 0  9998,2 52874  53.2184 196.2572 0001326 102.8014 257.3126 15.08840608 43048,6917.879,95.438,540.661,538.826,0.0
52874.0,STARLINK-4210,PAYLOAD,2023-03-23 12:52:22,15.08840607,0.0001308,53.2184,192.0926,104.9455,255.1682,-3.2829e-05,-8.1e-06,0.0,0 STARLINK-4210,1 52874U 22062AW  23082.53637554 -.00000810  00000-0 -32829-4 0  9990,2 52874  53.2184 192.0926 0001308 104.9455 255.1682 15.08840607 42699,6917.879,95.438,540.648,538.839,0.0
52874.0,STARLINK-4210,PAYLOAD,2023-03-24 12:43:05,15.08890407,0.0001864,53.2183,187.6325,132.4851,227.6298,0.00040974,6.248e-05,0.0,0 STARLINK-4210,1 52874U 22062AW  23083.52992230  .00006248  00000-0  40974-3 0  9993,2 52874  53.2183 187.6325 0001864 132.4851 227.6298 15.08890407 43336,6917.726,95.434,540.881,538.302,0.0
52874.0,STARLINK-4210,PAYLOAD,2023-03-24 14:18:28,15.08892252,0.0001283,53.218,187.3352,102.5301,257.5835,0.00042266,6.455e-05,0.0,0 STARLINK-4210,1 52874U 22062AW  23083.59616064  .00006455  00000-0  42266-3 0  9994,2 52874  53.2180 187.3352 0001283 102.5301 257.5835 15.08892252 42858,6917.721,95.434,540.473,538.698,0.0
52874.0,STARLINK-4210,PAYLOAD,2023-03-24 23:50:49,15.08849388,0.0001564,53.2187,185.5515,79.0123,281.1045,8.4125e-05,1.051e-05,0.0,0 STARLINK-4210,1 52874U 22062AW  23083.99363318  .00001051  00000-0  84125-4 0  9997,2 52874  53.2187 185.5515 0001564  79.0123 281.1045 15.08849388 43408,6917.852,95.437,540.799,538.635,0.0
52874.0,STARLINK-4210,PAYLOAD,2023-03-25 12:33:57,15.08823608,0.0001602,53.2182,183.1717,103.6183,256.4988,-0.00014334,-2.568e-05,0.0,0 STARLINK-4210,1 52874U 22062AW  23084.52358394 -.00002568  00000-0 -14334-3 0  9995,2 52874  53.2182 183.1717 0001602 103.6183 256.4988 15.08823608 43480,6917.93,95.439,540.904,538.687,0.0
52874.0,STARLINK-4210,PAYLOAD,2023-03-25 14:09:20,15.08829011,0.0001404,53.2178,182.8741,88.9447,271.1706,-0.00015682,-2.782e-05,0.0,0 STARLINK-4210,1 52874U 22062AW  23084.58982139 -.00002782  00000-0 -15682-3 0  9996,2 52874  53.2178 182.8741 0001404  88.9447 271.1706 15.08829011 43000,6917.914,95.438,540.75,538.808,0.0
52874.0,STARLINK-4210,PAYLOAD,2023-03-25 23:41:39,15.08832567,0.0001585,53.2185,181.0903,88.0637,272.0536,-0.00022692,-3.897e-05,0.0,0 STARLINK-4210,1 52874U 22062AW  23084.98726346 -.00003897  00000-0 -22692-3 0  9993,2 52874  53.2185 181.0903 0001585  88.0637 272.0536 15.08832567 43552,6917.903,95.438,540.865,538.672,0.0
52874.0,STARLINK-4210,PAYLOAD,2023-03-26 12:24:44,15.08853882,0.0001656,53.218,178.7132,83.5215,276.5965,-0.00038762,-6.454e-05,0.0,0 STARLINK-4210,1 52874U 22062AW  23085.51717977 -.00006454  00000-0 -38762-3 0  9990,2 52874  53.2180 178.7132 0001656  83.5215 276.5965 15.08853882 43632,6917.838,95.437,540.849,538.557,0.0
52874.0,STARLINK-4210,PAYLOAD,2023-03-26 14:00:07,15.08855908,0.000169,53.2179,178.4161,83.6505,276.468,-0.00036066,-6.026e-05,0.0,0 STARLINK-4210,1 52874U 22062AW  23085.58341696 -.00006026  00000-0 -36066-3 0  9998,2 52874  53.2179 178.4161 0001690  83.6505 276.4680 15.08855908 43151,6917.832,95.437,540.866,538.528,0.0
52874.0,STARLINK-4210,PAYLOAD,2023-03-27 12:15:31,15.08826531,0.0001605,53.2178,174.2549,40.9024,319.2088,0.00030119,4.507e-05,0.0,0 STARLINK-4210,1 52874U 22062AW  23086.51077904  .00004507  00000-0  30119-3 0  9993,2 52874  53.2178 174.2549 0001605  40.9024 319.2088 15.08826531 43295,6917.922,95.438,540.897,538.676,0.0
52874.0,STARLINK-4210,PAYLOAD,2023-03-28 05:44:46,15.08831584,0.0001765,53.218,170.9813,90.9344,269.185,0.00013308,1.83e-05,0.0,0 STARLINK-4210,1 52874U 22062AW  23087.23942278  .00001830  00000-0  13308-3 0  9995,2 52874  53.2180 170.9813 0001765  90.9344 269.1850 15.08831584 43892,6917.906,95.438,540.992,538.55,0.0
52874.0,STARLINK-4210,PAYLOAD,2023-03-28 12:06:18,15.08839989,0.0001757,53.2182,169.79,103.4025,256.7163,4.3756e-05,4.08e-06,0.0,0 STARLINK-4210,1 52874U 22062AW  23087.50438084  .00000408  00000-0  43756-4 0  9991,2 52874  53.2182 169.7900 0001757 103.4025 256.7163 15.08839989 43441,6917.88,95.438,540.961,538.53,0.0
52874.0,STARLINK-4210,PAYLOAD,2023-03-29 11:57:05,15.08844543,0.0001743,53.2178,165.3303,107.1218,252.9965,-6.9061e-05,-1.387e-05,0.0,0 STARLINK-4210,1 52874U 22062AW  23088.49798141 -.00001387  00000-0 -69061-4 0  9999,2 52874  53.2178 165.3303 0001743 107.1218 252.9965 15.08844543 44086,6917.867,95.437,540.937,538.526,0.0
52874.0,STARLINK-4210,PAYLOAD,2023-03-29 21:29:24,15.08846482,0.0001658,53.2181,163.5474,105.7612,254.3563,-0.00011282,-2.083e-05,0.0,0 STARLINK-4210,1 52874U 22062AW  23088.89542032 -.00002083  00000-0 -11282-3 0  9994,2 52874  53.2181 163.5474 0001658 105.7612 254.3563 15.08846482 43652,6917.861,95.437,540.873,538.579,0.0
52874.0,STARLINK-4210,PAYLOAD,2023-03-30 03:50:57,15.08827997,0.0001469,53.2184,162.3585,102.0112,258.1045,9.914e-05,1.29e-05,0.0,0 STARLINK-4210,1 52874U 22062AW  23089.16038454  .00001290  00000-0  99140-4 0  9990,2 52874  53.2184 162.3585 0001469 102.0112 258.1045 15.08827997 44186,6917.917,95.438,540.798,538.766,0.0
52874.0,STARLINK-4210,PAYLOAD,2023-03-30 21:20:11,15.08835458,0.0001412,53.2171,159.0866,108.8904,251.2241,-8.8576e-06,-4.29e-06,0.0,0 STARLINK-4210,1 52874U 22062AW  23089.88902615 -.00000429  00000-0 -88576-5 0  9995,2 52874  53.2171 159.0866 0001412 108.8904 251.2241 15.08835458 43809,6917.894,95.438,540.736,538.782,0.0
52874.0,STARLINK-4210,PAYLOAD,2023-03-31 05:17:07,15.0883542,0.0001351,53.2167,157.5993,104.4813,255.6329,1.8804e-06,-2.58e-06,0.0,0 STARLINK-4210,1 52874U 22062AW  23090.22022776 -.00000258  00000-0  18804-5 0  9992,2 52874  53.2167 157.5993 0001351 104.4813 255.6329 15.08835420 44345,6917.894,95.438,540.694,538.825,0.0
